OBJECT_NAME,OBJECT_ID,EPOCH,MEAN_MOTION,ECCENTRICITY,INCLINATION,RA_OF_ASC_NODE,ARG_OF_PERICENTER,MEAN_ANOMALY,EPHEMERIS_TYPE,CLASSIFICATION_TYPE,NORAD_CAT_ID,ELEMENT_SET_NO,REV_AT_EPOCH,BSTAR,MEAN_MOTION_DOT,MEAN_MOTION_DDOT
ALOS (DAICHI),2006-002A,2025-12-06T15:14:41.401824,14.69459498,.00008265,98.1085,292.1658,112.4143,247.7151,0,U,28931,999,5981,.51516631E-3,.3003E-4,0
H-2A R/B,2006-002B,2025-12-06T15:22:42.049344,15.14382070,.00544572,98.2320,114.8925,197.0027,162.9380,0,U,28932,999,8034,.91471164E-3,.17366E-3,0
RESURS-DK 1,2006-021A,2025-12-06T09:55:49.837728,15.12107015,.00077614,69.9340,118.1849,263.4376,96.5906,0,U,29228,999,7342,.31037999E-3,.5256E-4,0
CZ-4B R/B,2006-046C,2025-12-06T15:07:05.892384,15.15779727,.00328666,97.5736,20.7850,228.2352,131.6070,0,U,29507,999,4594,.42352518E-3,.8127E-4,0
CZ-2C R/B,2007-010B,2025-12-06T14:08:37.190976,14.20205945,.00586477,98.3974,93.5498,203.9434,155.9014,0,U,31114,999,96650,.17635202E-3,.342E-5,0
COSMO-SKYMED 1,2007-023A,2025-12-06T13:35:57.217344,14.95696573,.00011621,97.8835,165.9259,78.6726,281.4625,0,U,31598,999,98,.54226524E-3,.5978E-4,0
COSMOS 2428,2007-029A,2025-12-06T13:53:41.440704,14.12887833,.00033168,70.9372,38.8151,32.6739,327.4587,0,U,31792,999,95094,.80518607E-4,.102E-5,0
SL-16 R/B,2007-029B,2025-12-06T12:58:42.714624,14.14815650,.00023652,70.9765,8.1892,264.4837,257.2055,0,U,31793,999,95219,-.6100532E-4,-.166E-5,0
KORONAS-FOTON,2009-003A,2025-12-06T14:03:43.792992,15.40976621,.00129314,82.4307,12.4814,127.8771,232.3647,0,U,33504,999,93139,.36753146E-3,.15228E-3,0
CZ-2C R/B,2011-030B,2025-12-06T16:03:03.710016,14.80870576,.00515301,97.8408,294.9099,293.9644,239.4474,0,U,37731,999,77632,.41307974E-3,.3209E-4,0
H-2A R/B,2012-025E,2025-12-06T14:43:38.010432,14.94385182,.00438104,98.4589,295.3713,256.8470,102.7857,0,U,38341,999,73431,.55446145E-3,.6016E-4,0
SHIJIAN-16 (SJ-16),2013-057A,2025-12-06T13:36:54.610272,14.91961721,.00175072,74.9725,1.3331,334.3387,25.6931,0,U,39358,999,65761,.21625068E-3,.2167E-4,0
SL-4 R/B,2014-021B,2025-12-06T15:10:37.337376,15.36449968,.0102313,51.6086,70.2716,124.1129,236.9612,0,U,39679,999,64195,.47337E-3,.20002E-3,0
ALOS-2,2014-029A,2025-12-06T12:29:54.834720,14.79466407,.00015175,97.9236,75.4559,105.6706,254.4673,0,U,39766,999,62309,.49410274E-3,.364E-4,0
YAOGAN-29,2015-069A,2025-12-06T14:40:49.496736,14.82872443,.00005064,98.0223,3.7635,357.5326,2.5885,0,U,41038,999,54208,.12119521E-3,.928E-5,0
ASTRO-H (HITOMI),2016-012A,2025-12-06T09:46:55.850304,15.09293028,.00094752,30.9989,238.1941,114.7865,245.3759,0,U,41337,999,53812,.34891694E-3,.5797E-4,0
HXMT (HUIYAN),2017-034A,2025-12-06T14:21:33.869952,15.16172998,.00323563,43.0117,173.7072,3.9927,356.1173,0,U,42758,999,46840,.32318694E-3,.6198E-4,0
CZ-2C R/B,2018-054D,2025-12-06T09:20:40.646976,15.72509424,.00165044,35.1329,223.9154,76.4536,283.8034,0,U,43521,999,41405,.93051745E-3,.132048E-2,0
SAOCOM 1A,2018-076A,2025-12-06T14:18:09.316224,14.82147126,.00014901,97.8853,165.1078,87.8964,272.2420,0,U,43641,999,38757,.12812043E-3,.968E-5,0
H-2A R/B,2018-084L,2025-12-06T15:19:51.263328,15.37052057,.00278757,98.8773,173.4548,347.5114,12.5432,0,U,43682,999,39146,.79761714E-3,.29269E-3,0
SAOCOM 1B,2020-059A,2025-12-06T13:25:57.230688,14.82149038,.00012523,97.8849,164.1730,87.2052,272.9305,0,U,46265,999,28495,.78112183E-4,.57E-5,0
CSS (TIANHE),2021-035A,2025-12-06T15:05:32.998560,15.58799060,.00095344,41.4683,53.7961,342.8614,17.1901,0,U,48274,999,26307,.36466504E-3,.28802E-3,0
COSMOS 2550,2021-056A,2025-12-06T12:45:06.981120,15.33831192,.0008392,67.1444,322.7124,270.0197,89.9996,0,U,48865,999,24917,.81497302E-4,.2491E-4,0
CZ-2C R/B,2022-058K,2025-12-06T13:07:33.971808,15.48070272,.00460312,50.1912,75.1214,172.9477,187.2148,0,U,52794,999,19567,.72203675E-3,.39941E-3,0
CZ-2C R/B,2022-132E,2025-12-06T14:52:53.096736,15.54256627,.0023638,97.2944,336.7036,77.0037,283.3855,0,U,54039,999,17588,.7743751E-3,.51288E-3,0
GSLV R/B,2022-138AN,2025-12-06T15:15:01.496736,14.96086216,.00236481,87.3830,197.5183,125.7136,234.6301,0,U,54149,999,17001,.4132547E-3,.4697E-4,0
XRISM,2023-137A,2025-12-06T13:20:11.734368,15.10246909,.00076562,30.9997,165.4691,183.1697,176.8894,0,U,57800,999,12369,.42094613E-3,.7157E-4,0
ACS3,2024-077B,2025-12-06T14:44:54.384576,13.85042565,.00778489,97.2738,297.5874,351.7783,8.2097,0,U,59588,999,8129,.32142589E-1,.3738E-3,0