ALOS (DAICHI)           
1 28931U 06002A   25340.63520141  .00003003  00000+0  51517-3 0  9994
2 28931  98.1085 292.1658 0000826 112.4143 247.7151 14.69459498 59810
H-2A R/B                
1 28932U 06002B   25340.64076446  .00017366  00000+0  91471-3 0  9990
2 28932  98.2320 114.8925 0054457 197.0027 162.9380 15.14382070 80346
RESURS-DK 1             
1 29228U 06021A   25340.41377127  .00005256  00000+0  31038-3 0  9993
2 29228  69.9340 118.1849 0007761 263.4376  96.5906 15.12107015 73424
CZ-4B R/B               
1 29507U 06046C   25340.62992931  .00008127  00000+0  42353-3 0  9991
2 29507  97.5736  20.7850 0032866 228.2352 131.6070 15.15779727 45944
CZ-2C R/B               
1 31114U 07010B   25340.58931934  .00000342  00000+0  17635-3 0  9997
2 31114  98.3974  93.5498 0058647 203.9434 155.9014 14.20205945966508
COSMO-SKYMED 1          
1 31598U 07023A   25340.56663446  .00005978  00000+0  54227-3 0  9993
2 31598  97.8835 165.9259 0001162  78.6726 281.4625 14.95696573   981
COSMOS 2428             
1 31792U 07029A   25340.57895186  .00000102  00000+0  80519-4 0  9992
2 31792  70.9372  38.8151 0003316  32.6739 327.4587 14.12887833950949
SL-16 R/B               
1 31793U 07029B   25340.54077216 -.00000166  00000+0 -61005-4 0  9997
2 31793  70.9765   8.1892 0002365 264.4837 257.2055 14.14815650952194
KORONAS-FOTON           
1 33504U 09003A   25340.58592353  .00015228  00000+0  36753-3 0  9995
2 33504  82.4307  12.4814 0012931 127.8771 232.3647 15.40976621931393
CZ-2C R/B               
1 37731U 11030B   25340.66879294  .00003209  00000+0  41308-3 0  9993
2 37731  97.8408 294.9099 0051530 293.9644 239.4474 14.80870576776326
H-2A R/B                
1 38341U 12025E   25340.61363438  .00006016  00000+0  55446-3 0  9996
2 38341  98.4589 295.3713 0043810 256.8470 102.7857 14.94385182734315
SHIJIAN-16 (SJ-16)      
1 39358U 13057A   25340.56729873  .00002167  00000+0  21625-3 0  9999
2 39358  74.9725   1.3331 0017507 334.3387  25.6931 14.91961721657618
SL-4 R/B                
1 39679U 14021B   25340.63237659  .00020002  00000+0  47337-3 0  9997
2 39679  51.6086  70.2716 0102313 124.1129 236.9612 15.36449968641954
ALOS-2                  
1 39766U 14029A   25340.52077355  .00003640  00000+0  49410-3 0  9998
2 39766  97.9236  75.4559 0001517 105.6706 254.4673 14.79466407623092
YAOGAN-29               
1 41038U 15069A   25340.61168399  .00000928  00000+0  12120-3 0  9991
2 41038  98.0223   3.7635 0000506 357.5326   2.5885 14.82872443542088
ASTRO-H (HITOMI)        
1 41337U 16012A   25340.40759086  .00005797  00000+0  34892-3 0  9997
2 41337  30.9989 238.1941 0009475 114.7865 245.3759 15.09293028538126
HXMT (HUIYAN)           
1 42758U 17034A   25340.59830868  .00006198  00000+0  32319-3 0  9996
2 42758  43.0117 173.7072 0032356   3.9927 356.1173 15.16172998468407
CZ-2C R/B               
1 43521U 18054D   25340.38935934  .00132048  00000+0  93052-3 0  9990
2 43521  35.1329 223.9154 0016504  76.4536 283.8034 15.72509424414054
SAOCOM 1A               
1 43641U 18076A   25340.59594116  .00000968  00000+0  12812-3 0  9993
2 43641  97.8853 165.1078 0001490  87.8964 272.2420 14.82147126387579
H-2A R/B                
1 43682U 18084L   25340.63878777  .00029269  00000+0  79762-3 0  9992
2 43682  98.8773 173.4548 0027875 347.5114  12.5432 15.37052057391468
SAOCOM 1B               
1 46265U 20059A   25340.55969017  .00000570  00000+0  78112-4 0  9999
2 46265  97.8849 164.1730 0001252  87.2052 272.9305 14.82149038284952
CSS (TIANHE)            
1 48274U 21035A   25340.62885415  .00028802  00000+0  36467-3 0  9997
2 48274  41.4683  53.7961 0009534 342.8614  17.1901 15.58799060263070
COSMOS 2550             
1 48865U 21056A   25340.53133080  .00002491  00000+0  81497-4 0  9990
2 48865  67.1444 322.7124 0008392 270.0197  89.9996 15.33831192249177
CZ-2C R/B               
1 52794U 22058K   25340.54692097  .00039941  00000+0  72204-3 0  9993
2 52794  50.1912  75.1214 0046031 172.9477 187.2148 15.48070272195673
CZ-2C R/B               
1 54039U 22132E   25340.62005899  .00051288  00000+0  77438-3 0  9999
2 54039  97.2944 336.7036 0023638  77.0037 283.3855 15.54256627175888
GSLV R/B                
1 54149U 22138AN  25340.63543399  .00004697  00000+0  41325-3 0  9998
2 54149  87.3830 197.5183 0023648 125.7136 234.6301 14.96086216170017
XRISM                   
1 57800U 23137A   25340.55569137  .00007157  00000+0  42095-3 0  9993
2 57800  30.9997 165.4691 0007656 183.1697 176.8894 15.10246909123691
ACS3                    
1 59588U 24077B   25340.61451834  .00037380  00000+0  32143-1 0  9995
2 59588  97.2738 297.5874 0077848 351.7783   8.2097 13.85042565 81298
